CREW DRAGON 12          
1 67796U 26031A   26067.73890429  .00009449  00000+0  18227-3 0  9998
2 67796  51.6319  77.0569 0008050 171.0721 189.0412 15.48531098556070
