[{"OBJECT_NAME":"CREW DRAGON 12","OBJECT_ID":"2026-031A","EPOCH":"2026-03-08T17:44:01.330656","MEAN_MOTION":15.48531098,"ECCENTRICITY":0.00080508,"INCLINATION":51.6319,"RA_OF_ASC_NODE":77.0569,"ARG_OF_PERICENTER":171.0721,"MEAN_ANOMALY":189.0412,"EPHEMERIS_TYPE":0,"CLASSIFICATION_TYPE":"U","NORAD_CAT_ID":67796,"ELEMENT_SET_NO":999,"REV_AT_EPOCH":55607,"BSTAR":0.00018226947,"MEAN_MOTION_DOT":9.449e-5,"MEAN_MOTION_DDOT":0}]
